NORAD_CAT_ID,OBJECT_NAME,OBJECT_TYPE,EPOCH,MEAN_MOTION,ECCENTRICITY,INCLINATION,RA_OF_ASC_NODE,ARG_OF_PERICENTER,MEAN_ANOMALY,BSTAR,MEAN_MOTION_DOT,MEAN_MOTION_DDOT,TLE_LINE0,TLE_LINE1,TLE_LINE2,SEMIMAJOR_AXIS,PERIOD,APOGEE,PERIGEE,DECAYED
49749,STARLINK-3250,PAYLOAD,2023-05-14 20:58:21,15.08842588,0.0001218,53.2167,92.1437,97.8626,262.2504,6.9586e-05,8.2e-06,0.0,0 STARLINK-3250,1 49749U 21115AB  23134.87385540  .00000820  00000-0  69586-4 0  9994,2 49749  53.2167  92.1437 0001218  97.8626 262.2504 15.08842588 80069,6917.872,95.437,540.58,538.895,0.0
49749,STARLINK-3250,PAYLOAD,2023-05-15 03:19:53,15.08845128,0.0001228,53.2167,90.9547,93.082,267.0313,0.00012862,1.76e-05,0.0,0 STARLINK-3250,1 49749U 21115AB  23135.13881433  .00001760  00000-0  12862-3 0  9994,2 49749  53.2167  90.9547 0001228  93.0820 267.0313 15.08845128 80101,6917.865,95.437,540.579,538.88,0.0
49749,STARLINK-3250,PAYLOAD,2023-05-15 14:27:35,15.08846544,0.0001227,53.2166,88.8731,92.0057,268.1076,0.00017232,2.456e-05,0.0,0 STARLINK-3250,1 49749U 21115AB  23135.60249345  .00002456  00000-0  17232-3 0  9995,2 49749  53.2166  88.8731 0001227  92.0057 268.1076 15.08846544 80179,6917.86,95.437,540.574,538.877,0.0
49749,STARLINK-3250,PAYLOAD,2023-05-16 06:21:26,15.08847581,0.0001384,53.2172,85.8991,95.0757,265.0393,0.00018639,2.68e-05,0.0,0 STARLINK-3250,1 49749U 21115AB  23136.26489279  .00002680  00000-0  18639-3 0  9991,2 49749  53.2172  85.8991 0001384  95.0757 265.0393 15.08847581 81389,6917.857,95.437,540.68,538.765,0.0
49749,STARLINK-3250,PAYLOAD,2023-05-17 03:01:27,15.08847252,0.0001152,53.2182,82.0342,90.809,269.3034,8.0572e-05,9.95e-06,0.0,0 STARLINK-3250,1 49749U 21115AB  23137.12601055  .00000995  00000-0  80572-4 0  9998,2 49749  53.2182  82.0342 0001152  90.8090 269.3034 15.08847252 81514,6917.858,95.437,540.52,538.926,0.0
49749,STARLINK-3250,PAYLOAD,2023-05-18 02:52:15,15.08837701,0.0001212,53.2183,77.5742,89.4327,270.6804,5.5372e-05,5.93e-06,0.0,0 STARLINK-3250,1 49749U 21115AB  23138.11961995  .00000593  00000-0  55372-4 0  9994,2 49749  53.2183  77.5742 0001212  89.4327 270.6804 15.08837701 81666,6917.887,95.438,540.591,538.914,0.0
49749,STARLINK-3250,PAYLOAD,2023-05-18 06:03:01,15.08839228,0.0001203,53.2183,76.9788,96.7264,263.3865,3.5719e-05,2.81e-06,0.0,0 STARLINK-3250,1 49749U 21115AB  23138.25209708  .00000281  00000-0  35719-4 0  9993,2 49749  53.2183  76.9788 0001203  96.7264 263.3865 15.08839228 80571,6917.883,95.438,540.58,538.916,0.0
49749,STARLINK-3250,PAYLOAD,2023-05-19 05:53:47,15.08845367,0.0001091,53.2185,72.518,91.6584,268.4533,9.2655e-05,1.187e-05,0.0,0 STARLINK-3250,1 49749U 21115AB  23139.24569418  .00001187  00000-0  92655-4 0  9998,2 49749  53.2185  72.5180 0001091  91.6584 268.4533 15.08845367 81834,6917.864,95.437,540.484,538.974,0.0
49749,STARLINK-3250,PAYLOAD,2023-05-20 04:09:12,15.08841125,0.0001185,53.2182,68.3557,81.8292,278.2835,0.00010099,1.32e-05,0.0,0 STARLINK-3250,1 49749U 21115AB  23140.17306024  .00001320  00000-0  10099-3 0  9994,2 49749  53.2182  68.3557 0001185  81.8292 278.2835 15.08841125 81970,6917.877,95.437,540.562,538.922,0.0
49749,STARLINK-3250,PAYLOAD,2023-05-21 03:59:57,15.08867944,0.0001303,53.2179,63.8956,89.8712,270.2429,0.00037603,5.706e-05,0.0,0 STARLINK-3250,1 49749U 21115AB  23141.16664208  .00005706  00000-0  37603-3 0  9997,2 49749  53.2179  63.8956 0001303  89.8712 270.2429 15.08867944 82122,6917.795,95.436,540.561,538.759,0.0
49749,STARLINK-3250,PAYLOAD,2023-05-22 03:50:47,15.08822272,0.0001508,53.2186,59.4366,85.4228,274.6937,-0.00017415,-3.057e-05,0.0,0 STARLINK-3250,1 49749U 21115AB  23142.16026970 -.00003057  00000-0 -17415-3 0  9994,2 49749  53.2186  59.4366 0001508  85.4228 274.6937 15.08822272 82270,6917.935,95.439,540.843,538.756,0.0
49749,STARLINK-3250,PAYLOAD,2023-05-22 11:47:43,15.08825711,0.0001342,53.219,57.9469,81.9283,278.1861,0.00029481,4.405e-05,0.0,0 STARLINK-3250,1 49749U 21115AB  23142.49147244  .00004405  00000-0  29481-3 0  9990,2 49749  53.2190  57.9469 0001342  81.9283 278.1861 15.08825711 81219,6917.924,95.438,540.717,538.861,0.0
49749,STARLINK-3250,PAYLOAD,2023-05-23 00:30:48,15.08842856,0.0001282,53.2174,55.5714,64.2749,295.8376,0.0010231,0.00016033,0.0,0 STARLINK-3250,1 49749U 21115AB  23143.02139606  .00016033  00000-0  10231-2 0  9995,2 49749  53.2174  55.5714 0001282  64.2749 295.8376 15.08842856 82400,6917.872,95.437,540.624,538.85,0.0
49749,STARLINK-3250,PAYLOAD,2023-05-23 03:41:34,15.08854439,0.0001269,53.217,54.9753,72.28,287.833,0.0013329,0.00020997,0.0,0 STARLINK-3250,1 49749U 21115AB  23143.15387409  .00020997  00000-0  13329-2 0  9990,2 49749  53.2170  54.9753 0001269  72.2800 287.8330 15.08854439 82427,6917.836,95.437,540.579,538.823,0.0
49749,STARLINK-3250,PAYLOAD,2023-05-24 00:21:34,15.08860418,0.0001279,53.2169,51.108,76.2314,283.882,0.00067524,0.00010481,0.0,0 STARLINK-3250,1 49749U 21115AB  23144.01498783  .00010481  00000-0  67524-3 0  9998,2 49749  53.2169  51.1080 0001279  76.2314 283.8820 15.08860418 82550,6917.818,95.436,540.568,538.798,0.0
49749,STARLINK-3250,PAYLOAD,2023-05-25 22:27:45,15.08844523,0.0001252,53.2176,42.4841,90.7779,269.3357,-4.5644e-05,-1.014e-05,0.0,0 STARLINK-3250,1 49749U 21115AB  23145.93594332 -.00001014  00000-0 -45644-4 0  9991,2 49749  53.2176  42.4841 0001252  90.7779 269.3357 15.08844523 81735,6917.867,95.437,540.598,538.865,0.0
49749,STARLINK-3250,PAYLOAD,2023-05-26 04:49:17,15.08851652,0.000118,53.2173,41.2939,87.6596,272.4532,6.6588e-05,7.72e-06,0.0,0 STARLINK-3250,1 49749U 21115AB  23146.20089821  .00000772  00000-0  66588-4 0  9992,2 49749  53.2173  41.2939 0001180  87.6596 272.4532 15.08851652 82887,6917.845,95.437,540.526,538.893,0.0
49749,STARLINK-3250,PAYLOAD,2023-05-26 17:32:23,15.08834231,0.0001289,53.2179,38.917,113.6783,246.4344,4.5192e-06,-2.16e-06,0.0,0 STARLINK-3250,1 49749U 21115AB  23146.73083075 -.00000216  00000-0  45192-5 0  9998,2 49749  53.2179  38.9170 0001289 113.6783 246.4344 15.08834231 82966,6917.898,95.438,540.655,538.871,0.0
49749,STARLINK-3250,PAYLOAD,2023-05-26 20:43:09,15.08837079,0.0001195,53.218,38.3227,98.8199,261.2929,2.2649e-05,7.3e-07,0.0,0 STARLINK-3250,1 49749U 21115AB  23146.86330902  .00000073  00000-0  22649-4 0  9997,2 49749  53.2180  38.3227 0001195  98.8199 261.2929 15.08837079 81872,6917.889,95.438,540.581,538.928,0.0
49749,STARLINK-3250,PAYLOAD,2023-05-27 03:04:42,15.08841766,0.0001177,53.2185,37.1343,98.3817,261.7309,6.8204e-05,7.98e-06,0.0,0 STARLINK-3250,1 49749U 21115AB  23147.12826488  .00000798  00000-0  68204-4 0  9997,2 49749  53.2185  37.1343 0001177  98.3817 261.7309 15.08841766 83029,6917.875,95.437,540.554,538.926,0.0
49749,STARLINK-3250,PAYLOAD,2023-05-27 20:33:57,15.08837895,9.93e-05,53.2178,33.8629,99.0867,261.0237,-3.0905e-05,-7.8e-06,0.0,0 STARLINK-3250,1 49749U 21115AB  23147.85691287 -.00000780  00000-0 -30905-4 0  9994,2 49749  53.2178  33.8629 0000993  99.0867 261.0237 15.08837895 83132,6917.887,95.438,540.439,539.065,0.0
49749,STARLINK-3250,PAYLOAD,2023-05-27 22:09:20,15.08838637,9.94e-05,53.2178,33.5656,98.9394,261.1711,-2.3157e-05,-6.56e-06,0.0,0 STARLINK-3250,1 49749U 21115AB  23147.92315232 -.00000656  00000-0 -23157-4 0  9998,2 49749  53.2178  33.5656 0000994  98.9394 261.1711 15.08838637 82034,6917.885,95.438,540.437,539.062,0.0
49749,STARLINK-3250,PAYLOAD,2023-05-28 01:20:06,15.0884143,0.0001017,53.2178,32.9709,101.4106,258.7001,2.1874e-06,-2.53e-06,0.0,0 STARLINK-3250,1 49749U 21115AB  23148.05563005 -.00000253  00000-0  21874-5 0  9993,2 49749  53.2178  32.9709 0001017 101.4106 258.7001 15.08841430 82055,6917.876,95.437,540.445,539.037,0.0
49749,STARLINK-3250,PAYLOAD,2023-05-28 20:24:43,15.08845965,0.000106,53.218,29.4021,100.0238,260.0874,0.00013735,1.899e-05,0.0,0 STARLINK-3250,1 49749U 21115AB  23148.85050547  .00001899  00000-0  13735-3 0  9994,2 49749  53.2180  29.4021 0001060 100.0238 260.0874 15.08845965 83282,6917.862,95.437,540.46,538.994,0.0
49749,STARLINK-3250,PAYLOAD,2023-05-29 01:10:52,15.08850578,0.0001072,53.2179,28.51,98.0993,262.012,0.0001787,2.558e-05,0.0,0 STARLINK-3250,1 49749U 21115AB  23149.04922182  .00002558  00000-0  17870-3 0  9996,2 49749  53.2179  28.5100 0001072  98.0993 262.0120 15.08850578 82208,6917.848,95.437,540.455,538.971,0.0
49749,STARLINK-3250,PAYLOAD,2023-05-29 21:50:54,15.08831698,0.0001154,53.2187,24.642,94.9854,265.127,2.9738e-05,1.85e-06,0.0,0 STARLINK-3250,1 49749U 21115AB  23149.91035591  .00000185  00000-0  29738-4 0  9992,2 49749  53.2187  24.6420 0001154  94.9854 265.1270 15.08831698 82337,6917.906,95.438,540.569,538.972,0.0
49749,STARLINK-3250,PAYLOAD,2023-05-30 01:01:41,15.08834183,0.0001064,53.2177,24.049,88.3663,271.7451,2.8791e-05,1.7e-06,0.0,0 STARLINK-3250,1 49749U 21115AB  23150.04283601  .00000170  00000-0  28791-4 0  9997,2 49749  53.2177  24.0490 0001064  88.3663 271.7451 15.08834183 83463,6917.898,95.438,540.499,539.027,0.0
49749,STARLINK-3250,PAYLOAD,2023-05-30 15:20:08,15.0884645,0.0001093,53.2188,21.3737,94.7741,265.3376,8.7433e-05,1.104e-05,0.0,0 STARLINK-3250,1 49749U 21115AB  23150.63899119  .00001104  00000-0  87433-4 0  9995,2 49749  53.2188  21.3737 0001093  94.7741 265.3376 15.08846450 83554,6917.861,95.437,540.482,538.97,0.0
49749,STARLINK-3250,PAYLOAD,2023-05-30 21:41:41,15.08853342,0.0001062,53.2177,20.1846,87.4403,272.6711,0.00022562,3.306e-05,0.0,0 STARLINK-3250,1 49749U 21115AB  23150.90394750  .00003306  00000-0  22562-3 0  9993,2 49749  53.2177  20.1846 0001062  87.4403 272.6711 15.08853342 82483,6917.84,95.437,540.439,538.97,0.0
49749,STARLINK-3250,PAYLOAD,2023-05-31 18:21:42,15.08841656,0.0001091,53.2164,16.3213,73.9505,286.1607,0.00010446,1.375e-05,0.0,0 STARLINK-3250,1 49749U 21115AB  23151.76507379  .00001375  00000-0  10446-3 0  9993,2 49749  53.2164  16.3213 0001091  73.9505 286.1607 15.08841656 83726,6917.875,95.437,540.495,538.986,0.0
